{"type": "FeatureCollection", "features": [ {"type": "Feature", "properties": {"norad_id": 60989, "name": "SENTINEL-2C", "group": "resource", "lat": -66.34717465516918, "lon": -133.28249065986304, "alt_km": 796.9744739435655, "timestamp": "2025-12-20T11:30:28.029042+00:00", "meta": {"OBJECT_NAME": "SENTINEL-2C", "OBJECT_ID": "2024-157A", "EPOCH": "2025-12-20T03:38:23.299584", "MEAN_MOTION": 14.30820273, "ECCENTRICITY": 0.0001204, "INCLINATION": 98.5676, "RA_OF_ASC_NODE": 66.5273, "ARG_OF_PERICENTER": 95.83, "MEAN_ANOMALY": 264.302, "EPHEMERIS_TYPE": 0, "CLASSIFICATION_TYPE": "U", "NORAD_CAT_ID": 60989, "ELEMENT_SET_NO": 999, "REV_AT_EPOCH": 6738, "BSTAR": 5.6239e-05, "MEAN_MOTION_DOT": 1.04e-06, "MEAN_MOTION_DDOT": 0}, "tle": {"line1": "1 60989U 24157A   25354.15165856  .00000104  00000+0  56239-4 0  9990", "line2": "2 60989  98.5676  66.5273 0001204  95.8300 264.3020 14.30820273 67387"}}, "geometry": {"type": "Point", "coordinates": [-133.28249065986304, -66.34717465516918]}}, {"type": "Feature", "properties": {"norad_id": 61735, "name": "IONOSFERA-M 1", "group": "resource", "lat": -69.38234011041345, "lon": -111.59739016772977, "alt_km": 823.3768966201278, "timestamp": "2025-12-20T11:30:28.029052+00:00", "meta": {"OBJECT_NAME": "IONOSFERA-M 1", "OBJECT_ID": "2024-199A", "EPOCH": "2025-12-20T05:05:26.632320", "MEAN_MOTION": 14.22715537, "ECCENTRICITY": 6.01e-05, "INCLINATION": 98.7399, "RA_OF_ASC_NODE": 224.0028, "ARG_OF_PERICENTER": 12.6558, "MEAN_ANOMALY": 347.4635, "EPHEMERIS_TYPE": 0, "CLASSIFICATION_TYPE": "U", "NORAD_CAT_ID": 61735, "ELEMENT_SET_NO": 999, "REV_AT_EPOCH": 10225, "BSTAR": 3.6308e-05, "MEAN_MOTION_DOT": 3.7e-07, "MEAN_MOTION_DDOT": 0}, "tle": {"line1": "1 61735U 24199A   25354.21211380  .00000037  00000+0  36308-4 0  9997", "line2": "2 61735  98.7399 224.0028 0000601  12.6558 347.4635 14.22715537102250"}}, "geometry": {"type": "Point", "coordinates": [-111.59739016772977, -69.38234011041345]}}, {"type": "Feature", "properties": {"norad_id": 61736, "name": "IONOSFERA-M 2", "group": "resource", "lat": 66.81192119417388, "lon": 65.22656319495324, "alt_km": 808.361255276277, "timestamp": "2025-12-20T11:30:28.029062+00:00", "meta": {"OBJECT_NAME": "IONOSFERA-M 2", "OBJECT_ID": "2024-199B", "EPOCH": "2025-12-20T04:14:02.842656", "MEAN_MOTION": 14.22717726, "ECCENTRICITY": 0.0001804, "INCLINATION": 98.7398, "RA_OF_ASC_NODE": 223.8798, "ARG_OF_PERICENTER": 101.0973, "MEAN_ANOMALY": 259.0407, "EPHEMERIS_TYPE": 0, "CLASSIFICATION_TYPE": "U", "NORAD_CAT_ID": 61736, "ELEMENT_SET_NO": 999, "REV_AT_EPOCH": 10537, "BSTAR": 3.6731e-05, "MEAN_MOTION_DOT": 3.8e-07, "MEAN_MOTION_DDOT": 0}, "tle": {"line1": "1 61736U 24199B   25354.17642179  .00000038  00000+0  36731-4 0  9998", "line2": "2 61736  98.7398 223.8798 0001804 101.0973 259.0407 14.22717726105374"}}, "geometry": {"type": "Point", "coordinates": [65.22656319495324, 66.81192119417388]}}, {"type": "Feature", "properties": {"norad_id": 63772, "name": "BIOMASS", "group": "resource", "lat": 68.02906741745856, "lon": 19.966584777265425, "alt_km": 661.665560777632, "timestamp": "2025-12-20T11:30:28.029071+00:00", "meta": {"OBJECT_NAME": "BIOMASS", "OBJECT_ID": "2025-090A", "EPOCH": "2025-12-20T01:11:17.011680", "MEAN_MOTION": 14.67536115, "ECCENTRICITY": 0.0001083, "INCLINATION": 98.07, "RA_OF_ASC_NODE": 178.9528, "ARG_OF_PERICENTER": 80.9367, "MEAN_ANOMALY": 279.196, "EPHEMERIS_TYPE": 0, "CLASSIFICATION_TYPE": "U", "NORAD_CAT_ID": 63772, "ELEMENT_SET_NO": 999, "REV_AT_EPOCH": 3441, "BSTAR": 0.0001371, "MEAN_MOTION_DOT": 7.3e-06, "MEAN_MOTION_DDOT": 0}, "tle": {"line1": "1 63772U 25090A   25354.04950245  .00000730  00000+0  13710-3 0  9993", "line2": "2 63772  98.0700 178.9528 0001083  80.9367 279.1960 14.67536115 34411"}}, "geometry": {"type": "Point", "coordinates": [19.966584777265425, 68.02906741745856]}}, {"type": "Feature", "properties": {"norad_id": 64694, "name": "GOSAT-GW (IBUKI GW)", "group": "resource", "lat": -38.97710776235893, "lon": -63.577796726249375, "alt_km": 675.8682997039687, "timestamp": "2025-12-20T11:30:28.029081+00:00", "meta": {"OBJECT_NAME": "GOSAT-GW (IBUKI GW)", "OBJECT_ID": "2025-141A", "EPOCH": "2025-12-20T03:30:19.604736", "MEAN_MOTION": 14.67564837, "ECCENTRICITY": 0.0001439, "INCLINATION": 98.0435, "RA_OF_ASC_NODE": 289.5248, "ARG_OF_PERICENTER": 84.1024, "MEAN_ANOMALY": 276.0345, "EPHEMERIS_TYPE": 0, "CLASSIFICATION_TYPE": "U", "NORAD_CAT_ID": 64694, "ELEMENT_SET_NO": 999, "REV_AT_EPOCH": 2558, "BSTAR": 7.7997e-05, "MEAN_MOTION_DOT": 3.95e-06, "MEAN_MOTION_DDOT": 0}, "tle": {"line1": "1 64694U 25141A   25354.14606024  .00000395  00000+0  77997-4 0  9993", "line2": "2 64694  98.0435 289.5248 0001439  84.1024 276.0345 14.67564837 25582"}}, "geometry": {"type": "Point", "coordinates": [-63.577796726249375, -38.97710776235893]}}, {"type": "Feature", "properties": {"norad_id": 64876, "name": "IONOSFERA-M 3", "group": "resource", "lat": 58.654216740859965, "lon": 150.47673418976868, "alt_km": 814.3524433457242, "timestamp": "2025-12-20T11:30:28.029091+00:00", "meta": {"OBJECT_NAME": "IONOSFERA-M 3", "OBJECT_ID": "2025-155A", "EPOCH": "2025-12-20T04:11:12.793632", "MEAN_MOTION": 14.21442699, "ECCENTRICITY": 0.0002028, "INCLINATION": 98.5793, "RA_OF_ASC_NODE": 315.8304, "ARG_OF_PERICENTER": 48.1648, "MEAN_ANOMALY": 311.9703, "EPHEMERIS_TYPE": 0, "CLASSIFICATION_TYPE": "U", "NORAD_CAT_ID": 64876, "ELEMENT_SET_NO": 999, "REV_AT_EPOCH": 2097, "BSTAR": 3.6282e-05, "MEAN_MOTION_DOT": 3.7e-07, "MEAN_MOTION_DDOT": 0}, "tle": {"line1": "1 64876U 25155A   25354.17445363  .00000037  00000+0  36282-4 0  9995", "line2": "2 64876  98.5793 315.8304 0002028  48.1648 311.9703 14.21442699 20975"}}, "geometry": {"type": "Point", "coordinates": [150.47673418976868, 58.654216740859965]}}, {"type": "Feature", "properties": {"norad_id": 64877, "name": "IONOSFERA-M 4", "group": "resource", "lat": -58.144779665533726, "lon": -29.893128316308097, "alt_km": 827.9734529654788, "timestamp": "2025-12-20T11:30:28.029101+00:00", "meta": {"OBJECT_NAME": "IONOSFERA-M 4", "OBJECT_ID": "2025-155B", "EPOCH": "2025-12-20T05:01:42.007872", "MEAN_MOTION": 14.21443851, "ECCENTRICITY": 0.0001427, "INCLINATION": 98.5791, "RA_OF_ASC_NODE": 315.7839, "ARG_OF_PERICENTER": 56.1082, "MEAN_ANOMALY": 304.0231, "EPHEMERIS_TYPE": 0, "CLASSIFICATION_TYPE": "U", "NORAD_CAT_ID": 64877, "ELEMENT_SET_NO": 999, "REV_AT_EPOCH": 2097, "BSTAR": 3.5422e-05, "MEAN_MOTION_DOT": 3.5e-07, "MEAN_MOTION_DDOT": 0}, "tle": {"line1": "1 64877U 25155B   25354.20951398  .00000035  00000+0  35422-4 0  9993", "line2": "2 64877  98.5791 315.7839 0001427  56.1082 304.0231 14.21443851 20979"}}, "geometry": {"type": "Point", "coordinates": [-29.893128316308097, -58.144779665533726]}}, {"type": "Feature", "properties": {"norad_id": 64899, "name": "MICROCARB", "group": "resource", "lat": 62.28326023550476, "lon": 54.170691870946264, "alt_km": 641.8625321002637, "timestamp": "2025-12-20T11:30:28.029111+00:00", "meta": {"OBJECT_NAME": "MICROCARB", "OBJECT_ID": "2025-156A", "EPOCH": "2025-12-19T23:48:05.442624", "MEAN_MOTION": 14.72067931, "ECCENTRICITY": 0.001749, "INCLINATION": 98.0018, "RA_OF_ASC_NODE": 69.2207, "ARG_OF_PERICENTER": 122.9295, "MEAN_ANOMALY": 237.3598, "EPHEMERIS_TYPE": 0, "CLASSIFICATION_TYPE": "U", "NORAD_CAT_ID": 64899, "ELEMENT_SET_NO": 999, "REV_AT_EPOCH": 2160, "BSTAR": 8.5404e-05, "MEAN_MOTION_DOT": 4.88e-06, "MEAN_MOTION_DDOT": 0}, "tle": {"line1": "1 64899U 25156A   25353.99172966  .00000488  00000+0  85404-4 0  9996", "line2": "2 64899  98.0018  69.2207 0017490 122.9295 237.3598 14.72067931 21607"}}, "geometry": {"type": "Point", "coordinates": [54.170691870946264, 62.28326023550476]}}, {"type": "Feature", "properties": {"norad_id": 64900, "name": "CO3D 3", "group": "resource", "lat": 3.8828980651293334, "lon": 70.22818554940879, "alt_km": 507.54464967097556, "timestamp": "2025-12-20T11:30:28.029120+00:00", "meta": {"OBJECT_NAME": "CO3D 3", "OBJECT_ID": "2025-156B", "EPOCH": "2025-12-20T03:35:30.752736", "MEAN_MOTION": 15.20200053, "ECCENTRICITY": 0.0001375, "INCLINATION": 97.4346, "RA_OF_ASC_NODE": 70.4109, "ARG_OF_PERICENTER": 79.8925, "MEAN_ANOMALY": 280.2465, "EPHEMERIS_TYPE": 0, "CLASSIFICATION_TYPE": "U", "NORAD_CAT_ID": 64900, "ELEMENT_SET_NO": 999, "REV_AT_EPOCH": 2233, "BSTAR": 0.00024357, "MEAN_MOTION_DOT": 5.208e-05, "MEAN_MOTION_DDOT": 0}, "tle": {"line1": "1 64900U 25156B   25354.14966149  .00005208  00000+0  24357-3 0  9995", "line2": "2 64900  97.4346  70.4109 0001375  79.8925 280.2465 15.20200053 22336"}}, "geometry": {"type": "Point", "coordinates": [70.22818554940879, 3.8828980651293334]}}, {"type": "Feature", "properties": {"norad_id": 64901, "name": "CO3D 4", "group": "resource", "lat": 3.2259059573948887, "lon": 70.31402790926263, "alt_km": 508.6342291707015, "timestamp": "2025-12-20T11:30:28.029130+00:00", "meta": {"OBJECT_NAME": "CO3D 4", "OBJECT_ID": "2025-156C", "EPOCH": "2025-12-19T14:57:26.055072", "MEAN_MOTION": 15.20230123, "ECCENTRICITY": 0.0001264, "INCLINATION": 97.434, "RA_OF_ASC_NODE": 69.8917, "ARG_OF_PERICENTER": 174.7354, "MEAN_ANOMALY": 185.3894, "EPHEMERIS_TYPE": 0, "CLASSIFICATION_TYPE": "U", "NORAD_CAT_ID": 64901, "ELEMENT_SET_NO": 999, "REV_AT_EPOCH": 2225, "BSTAR": 0.00021367, "MEAN_MOTION_DOT": 4.564e-05, "MEAN_MOTION_DDOT": 0}, "tle": {"line1": "1 64901U 25156C   25353.62321823  .00004564  00000+0  21367-3 0  9994", "line2": "2 64901  97.4340  69.8917 0001264 174.7354 185.3894 15.20230123 22251"}}, "geometry": {"type": "Point", "coordinates": [70.31402790926263, 3.2259059573948887]}}]}